{
    "links": {
        "self": "http://www.neowsapp.com/rest/v1/neo/3739216?api_key=iIulBulltgU6a56xZRHN4H3l9WmuAYTsLGpBGhQ2"
    },
    "id": "3739216",
    "neo_reference_id": "3739216",
    "name": "(2016 AK8)",
    "designation": "2016 AK8",
    "nasa_jpl_url": "http://ssd.jpl.nasa.gov/sbdb.cgi?sstr=3739216",
    "absolute_magnitude_h": 21.8,
    "estimated_diameter": {
        "kilometers": {
            "estimated_diameter_min": 0.1160259082,
            "estimated_diameter_max": 0.2594418179
        },
        "meters": {
            "estimated_diameter_min": 116.0259082094,
            "estimated_diameter_max": 259.4418179074
        },
        "miles": {
            "estimated_diameter_min": 0.0720951346,
            "estimated_diameter_max": 0.1612096218
        },
        "feet": {
            "estimated_diameter_min": 380.6624406898,
            "estimated_diameter_max": 851.1870938635
        }
    },
    "is_potentially_hazardous_asteroid": false,
    "close_approach_data": [
        {
            "close_approach_date": "2015-11-28",
            "close_approach_date_full": "2015-Nov-28 23:59",
            "epoch_date_close_approach": 1448755140000,
            "relative_velocity": {
                "kilometers_per_second": "12.4217398718",
                "kilometers_per_hour": "44718.2635385682",
                "miles_per_hour": "27786.1899192842"
            },
            "miss_distance": {
                "astronomical": "0.3455823517",
                "lunar": "134.4315348113",
                "kilometers": "51698383.723910879",
                "miles": "32123886.0416489702"
            },
            "orbiting_body": "Earth"
        }
    ],
    "orbital_data": {
        "orbit_id": "7",
        "orbit_determination_date": "2017-04-06 08:29:29",
        "first_observation_date": "2016-01-01",
        "last_observation_date": "2016-01-20",
        "data_arc_in_days": 19,
        "observations_used": 45,
        "orbit_uncertainty": "8",
        "minimum_orbit_intersection": ".203708",
        "jupiter_tisserand_invariant": "4.530",
        "epoch_osculation": "2457390.5",
        "eccentricity": ".1895257477625497",
        "semi_major_axis": "1.455020598445101",
        "inclination": "23.21735079422602",
        "ascending_node_longitude": "251.5384879337275",
        "orbital_period": "641.0651073784745",
        "perihelion_distance": "1.179256731514881",
        "perihelion_argument": "200.1115036056131",
        "aphelion_distance": "1.730784465375322",
        "perihelion_time": "2457402.013610702976",
        "mean_anomaly": "353.5343543029175",
        "mean_motion": ".5615654258147945",
        "equinox": "J2000",
        "orbit_class": {
            "orbit_class_type": "AMO",
            "orbit_class_description": "Near-Earth asteroid orbits similar to that of 1221 Amor",
            "orbit_class_range": "1.017 AU < q (perihelion) < 1.3 AU"
        }
    },
    "is_sentry_object": false
}